start=new Date('2022-06-22T00:00:00.000Z').valueOf();
sats=[{"TIME_SYSTEM":"UTC","DECAY_DATE":null,"APOAPSIS":"435.018","PERIAPSIS":"433.255","BSTAR":"-0.01675300000000","OBJECT_NAME":"STARLINK-3965","ARG_OF_PERICENTER":"59.8588","COUNTRY_CODE":"US","SITE":"AFWTR","EPHEMERIS_TYPE":"0","MEAN_ELEMENT_THEORY":"SGP4","REF_FRAME":"TEME","MEAN_MOTION_DDOT":"0.0000000000000","MEAN_MOTION_DOT":"-0.00719021","REV_AT_EPOCH":"666","GP_ID":"206559652","CENTER_NAME":"EARTH","CLASSIFICATION_TYPE":"U","TLE_LINE1":"1 52550U 22051T   22173.00002315 -.00719021  00000-0 -16753-1 0  9998","ECCENTRICITY":"0.00012940","OBJECT_ID":"2022-051T","FILE":"3499192","LAUNCH_DATE":"2022-05-13","TLE_LINE2":"2 52550  53.2175 102.2695 0001294  59.8588 262.5694 15.44062431  6668","MEAN_MOTION":"15.44062431","ELEMENT_SET_NO":"999","PERIOD":"93.260","NORAD_CAT_ID":"52550","SEMIMAJOR_AXIS":"6812.271","INCLINATION":"53.2175","RA_OF_ASC_NODE":"102.2695","RCS_SIZE":"LARGE","OBJECT_TYPE":"PAYLOAD","MEAN_ANOMALY":"262.5694","EPOCH":"2022-06-22T00:00:02.000160"},{"TLE_LINE1":"1 52551U 22051U   22173.00002315 -.00718747  00000-0 -16974-1 0  9998","CLASSIFICATION_TYPE":"U","FILE":"3499192","LAUNCH_DATE":"2022-05-13","OBJECT_ID":"2022-051U","ECCENTRICITY":"0.00012830","ELEMENT_SET_NO":"999","PERIOD":"93.284","TLE_LINE2":"2 52551  53.2174 102.2485 0001283  65.4260 249.6925 15.43665825  6661","MEAN_MOTION":"15.43665825","MEAN_ANOMALY":"249.6925","EPOCH":"2022-06-22T00:00:02.000160","SEMIMAJOR_AXIS":"6813.438","NORAD_CAT_ID":"52551","INCLINATION":"53.2174","RA_OF_ASC_NODE":"102.2485","RCS_SIZE":"LARGE","OBJECT_TYPE":"PAYLOAD","PERIAPSIS":"434.429","DECAY_DATE":null,"APOAPSIS":"436.177","BSTAR":"-0.01697400000000","OBJECT_NAME":"STARLINK-3969","TIME_SYSTEM":"UTC","EPHEMERIS_TYPE":"0","MEAN_ELEMENT_THEORY":"SGP4","ARG_OF_PERICENTER":"65.4260","COUNTRY_CODE":"US","SITE":"AFWTR","GP_ID":"206559547","CENTER_NAME":"EARTH","REF_FRAME":"TEME","MEAN_MOTION_DDOT":"0.0000000000000","MEAN_MOTION_DOT":"-0.00718747","REV_AT_EPOCH":"666"},{"PERIOD":"93.225","ELEMENT_SET_NO":"999","TLE_LINE2":"2 52552  53.2175 102.3005 0001240  63.9274 268.7721 15.44657381  6668","MEAN_MOTION":"15.44657381","EPOCH":"2022-06-22T00:00:02.000160","MEAN_ANOMALY":"268.7721","RCS_SIZE":"LARGE","OBJECT_TYPE":"PAYLOAD","RA_OF_ASC_NODE":"102.3005","INCLINATION":"53.2175","SEMIMAJOR_AXIS":"6810.522","NORAD_CAT_ID":"52552","TLE_LINE1":"1 52552U 22051V   22173.00002315 -.00719514  00000-0 -16428-1 0  9996","CLASSIFICATION_TYPE":"U","LAUNCH_DATE":"2022-05-13","FILE":"3499192","OBJECT_ID":"2022-051V","ECCENTRICITY":"0.00012400","MEAN_ELEMENT_THEORY":"SGP4","EPHEMERIS_TYPE":"0","SITE":"AFWTR","COUNTRY_CODE":"US","ARG_OF_PERICENTER":"63.9274","CENTER_NAME":"EARTH","GP_ID":"206559553","MEAN_MOTION_DOT":"-0.00719514","REV_AT_EPOCH":"666","MEAN_MOTION_DDOT":"0.0000000000000","REF_FRAME":"TEME","OBJECT_NAME":"STARLINK-3966","BSTAR":"-0.01642800000000","PERIAPSIS":"431.542","DECAY_DATE":null,"APOAPSIS":"433.231","TIME_SYSTEM":"UTC"},{"TLE_LINE2":"2 52553  53.2174 102.2591 0001288  60.8868 257.9328 15.43864117  6663","MEAN_MOTION":"15.43864117","ELEMENT_SET_NO":"999","PERIOD":"93.272","NORAD_CAT_ID":"52553","SEMIMAJOR_AXIS":"6812.855","INCLINATION":"53.2174","RA_OF_ASC_NODE":"102.2591","OBJECT_TYPE":"PAYLOAD","RCS_SIZE":"LARGE","MEAN_ANOMALY":"257.9328","EPOCH":"2022-06-22T00:00:02.000160","CLASSIFICATION_TYPE":"U","TLE_LINE1":"1 52553U 22051W   22173.00002315 -.00718836  00000-0 -16862-1 0  9995","ECCENTRICITY":"0.00012880","OBJECT_ID":"2022-051W","FILE":"3499192","LAUNCH_DATE":"2022-05-13","ARG_OF_PERICENTER":"60.8868","COUNTRY_CODE":"US","SITE":"AFWTR","EPHEMERIS_TYPE":"0","MEAN_ELEMENT_THEORY":"SGP4","REF_FRAME":"TEME","MEAN_MOTION_DDOT":"0.0000000000000","REV_AT_EPOCH":"666","MEAN_MOTION_DOT":"-0.00718836","GP_ID":"206559644","CENTER_NAME":"EARTH","TIME_SYSTEM":"UTC","APOAPSIS":"435.597","DECAY_DATE":null,"PERIAPSIS":"433.842","BSTAR":"-0.01686200000000","OBJECT_NAME":"STARLINK-3858"},{"PERIOD":"94.618","ELEMENT_SET_NO":"999","MEAN_MOTION":"15.21910598","TLE_LINE2":"2 52554  53.2173 104.9077 0001719  41.8464 262.1049 15.21910598  6626","EPOCH":"2022-06-22T00:00:02.000160","MEAN_ANOMALY":"262.1049","RCS_SIZE":"LARGE","OBJECT_TYPE":"PAYLOAD","INCLINATION":"53.2173","RA_OF_ASC_NODE":"104.9077","SEMIMAJOR_AXIS":"6878.215","NORAD_CAT_ID":"52554","TLE_LINE1":"1 52554U 22051X   22173.00002315 -.00835634  00000-0 -39299-1 0  9991","CLASSIFICATION_TYPE":"U","LAUNCH_DATE":"2022-05-13","FILE":"3499192","OBJECT_ID":"2022-051X","ECCENTRICITY":"0.00017190","MEAN_ELEMENT_THEORY":"SGP4","EPHEMERIS_TYPE":"0","SITE":"AFWTR","COUNTRY_CODE":"US","ARG_OF_PERICENTER":"41.8464","CENTER_NAME":"EARTH","GP_ID":"206559551","REV_AT_EPOCH":"662","MEAN_MOTION_DOT":"-0.00835634","MEAN_MOTION_DDOT":"0.0000000000000","REF_FRAME":"TEME","OBJECT_NAME":"STARLINK-3770","BSTAR":"-0.03929900000000","APOAPSIS":"501.262","DECAY_DATE":null,"PERIAPSIS":"498.898","TIME_SYSTEM":"UTC"},{"TLE_LINE1":"1 52555U 22051Y   22173.00002315 -.00719087  00000-0 -16642-1 0  9992","CLASSIFICATION_TYPE":"U","FILE":"3499192","LAUNCH_DATE":"2022-05-13","ECCENTRICITY":"0.00011970","OBJECT_ID":"2022-051Y","ELEMENT_SET_NO":"999","PERIOD":"93.249","TLE_LINE2":"2 52555  53.2175 102.2799 0001197  76.1047 249.8398 15.44260671  6667","MEAN_MOTION":"15.44260671","EPOCH":"2022-06-22T00:00:02.000160","MEAN_ANOMALY":"249.8398","NORAD_CAT_ID":"52555","SEMIMAJOR_AXIS":"6811.688","OBJECT_TYPE":"PAYLOAD","RCS_SIZE":"LARGE","INCLINATION":"53.2175","RA_OF_ASC_NODE":"102.2799","DECAY_DATE":null,"PERIAPSIS":"432.738","APOAPSIS":"434.369","OBJECT_NAME":"STARLINK-3949","BSTAR":"-0.01664200000000","TIME_SYSTEM":"UTC","MEAN_ELEMENT_THEORY":"SGP4","EPHEMERIS_TYPE":"0","COUNTRY_CODE":"US","ARG_OF_PERICENTER":"76.1047","SITE":"AFWTR","GP_ID":"206559647","CENTER_NAME":"EARTH","REF_FRAME":"TEME","MEAN_MOTION_DOT":"-0.00719087","REV_AT_EPOCH":"666","MEAN_MOTION_DDOT":"0.0000000000000"},{"TLE_LINE1":"1 52556U 22051Z   22173.00002315 -.00836284  00000-0 -39067-1 0  9998","CLASSIFICATION_TYPE":"U","LAUNCH_DATE":"2022-05-13","FILE":"3499192","ECCENTRICITY":"0.00018370","OBJECT_ID":"2022-051Z","PERIOD":"94.604","ELEMENT_SET_NO":"999","MEAN_MOTION":"15.22137915","TLE_LINE2":"2 52556  53.2174 104.9124 0001837  36.7903 281.1297 15.22137915  6625","MEAN_ANOMALY":"281.1297","EPOCH":"2022-06-22T00:00:02.000160","RA_OF_ASC_NODE":"104.9124","INCLINATION":"53.2174","RCS_SIZE":"LARGE","OBJECT_TYPE":"PAYLOAD","NORAD_CAT_ID":"52556","SEMIMAJOR_AXIS":"6877.530","BSTAR":"-0.03906700000000","OBJECT_NAME":"STARLINK-3763","DECAY_DATE":null,"APOAPSIS":"500.659","PERIAPSIS":"498.132","TIME_SYSTEM":"UTC","EPHEMERIS_TYPE":"0","MEAN_ELEMENT_THEORY":"SGP4","SITE":"AFWTR","ARG_OF_PERICENTER":"36.7903","COUNTRY_CODE":"US","CENTER_NAME":"EARTH","GP_ID":"206559650","MEAN_MOTION_DDOT":"0.0000000000000","MEAN_MOTION_DOT":"-0.00836284","REV_AT_EPOCH":"662","REF_FRAME":"TEME"},{"MEAN_MOTION_DOT":"-0.00719774","REV_AT_EPOCH":"666","MEAN_MOTION_DDOT":"0.0000000000000","REF_FRAME":"TEME","CENTER_NAME":"EARTH","GP_ID":"206559661","SITE":"AFWTR","COUNTRY_CODE":"US","ARG_OF_PERICENTER":"63.6379","MEAN_ELEMENT_THEORY":"SGP4","EPHEMERIS_TYPE":"0","TIME_SYSTEM":"UTC","OBJECT_NAME":"STARLINK-3943","BSTAR":"-0.01632300000000","PERIAPSIS":"430.954","DECAY_DATE":null,"APOAPSIS":"432.654","RCS_SIZE":"LARGE","OBJECT_TYPE":"PAYLOAD","INCLINATION":"53.2176","RA_OF_ASC_NODE":"102.3107","NORAD_CAT_ID":"52557","SEMIMAJOR_AXIS":"6809.939","EPOCH":"2022-06-22T00:00:02.000160","MEAN_ANOMALY":"272.3004","MEAN_MOTION":"15.44855720","TLE_LINE2":"2 52557  53.2176 102.3107 0001248  63.6379 272.3004 15.44855720  6660","PERIOD":"93.213","ELEMENT_SET_NO":"999","ECCENTRICITY":"0.00012480","OBJECT_ID":"2022-051AA","LAUNCH_DATE":"2022-05-13","FILE":"3499193","CLASSIFICATION_TYPE":"U","TLE_LINE1":"1 52557U 22051AA  22173.00002315 -.00719774  00000-0 -16323-1 0  9993"},{"ELEMENT_SET_NO":"999","PERIOD":"91.530","TLE_LINE2":"2 52558  53.2158 100.1345 0002198  16.5043 343.8694 15.73249420  1313","MEAN_MOTION":"15.73249420","EPOCH":"2022-06-21T22:00:00.999936","MEAN_ANOMALY":"343.8694","SEMIMAJOR_AXIS":"6727.754","NORAD_CAT_ID":"52558","OBJECT_TYPE":"PAYLOAD","RCS_SIZE":"LARGE","INCLINATION":"53.2158","RA_OF_ASC_NODE":"100.1345","TLE_LINE1":"1 52558U 22051AB  22172.91667824 -.00098049  00000-0 -70076-3 0  9997","CLASSIFICATION_TYPE":"U","FILE":"3499203","LAUNCH_DATE":"2022-05-13","ECCENTRICITY":"0.00021980","OBJECT_ID":"2022-051AB","MEAN_ELEMENT_THEORY":"SGP4","EPHEMERIS_TYPE":"0","COUNTRY_CODE":"US","ARG_OF_PERICENTER":"16.5043","SITE":"AFWTR","GP_ID":"206584773","CENTER_NAME":"EARTH","REF_FRAME":"TEME","REV_AT_EPOCH":"131","MEAN_MOTION_DOT":"-0.00098049","MEAN_MOTION_DDOT":"0.0000000000000","PERIAPSIS":"348.141","DECAY_DATE":null,"APOAPSIS":"351.098","OBJECT_NAME":"STARLINK-3954","BSTAR":"-0.00070076000000","TIME_SYSTEM":"UTC"},{"MEAN_ELEMENT_THEORY":"SGP4","EPHEMERIS_TYPE":"0","COUNTRY_CODE":"US","ARG_OF_PERICENTER":"20.5330","SITE":"AFWTR","GP_ID":"206559548","CENTER_NAME":"EARTH","REF_FRAME":"TEME","MEAN_MOTION_DOT":"0.00000830","REV_AT_EPOCH":"669","MEAN_MOTION_DDOT":"0.0000000000000","PERIAPSIS":"348.038","DECAY_DATE":null,"APOAPSIS":"351.462","OBJECT_NAME":"STARLINK-3953","BSTAR":"0.00001034300000","TIME_SYSTEM":"UTC","ELEMENT_SET_NO":"999","PERIOD":"91.533","TLE_LINE2":"2 52559  53.2175  99.6993 0002544  20.5330  90.7761 15.73203591  6691","MEAN_MOTION":"15.73203591","EPOCH":"2022-06-22T00:00:02.000160","MEAN_ANOMALY":"90.7761","SEMIMAJOR_AXIS":"6727.885","NORAD_CAT_ID":"52559","OBJECT_TYPE":"PAYLOAD","RCS_SIZE":"LARGE","RA_OF_ASC_NODE":"99.6993","INCLINATION":"53.2175","TLE_LINE1":"1 52559U 22051AC  22173.00002315  .00000830  00000-0  10343-4 0  9998","CLASSIFICATION_TYPE":"U","FILE":"3499192","LAUNCH_DATE":"2022-05-13","OBJECT_ID":"2022-051AC","ECCENTRICITY":"0.00025440"}];
